{
    "links": {
        "self": "http://www.neowsapp.com/rest/v1/neo/54000958?api_key=iIulBulltgU6a56xZRHN4H3l9WmuAYTsLGpBGhQ2"
    },
    "id": "54000958",
    "neo_reference_id": "54000958",
    "name": "(2020 DE3)",
    "designation": "2020 DE3",
    "nasa_jpl_url": "http://ssd.jpl.nasa.gov/sbdb.cgi?sstr=54000958",
    "absolute_magnitude_h": 23.938,
    "estimated_diameter": {
        "kilometers": {
            "estimated_diameter_min": 0.0433465939,
            "estimated_diameter_max": 0.0969259305
        },
        "meters": {
            "estimated_diameter_min": 43.346593856,
            "estimated_diameter_max": 96.9259304551
        },
        "miles": {
            "estimated_diameter_min": 0.0269343164,
            "estimated_diameter_max": 0.0602269623
        },
        "feet": {
            "estimated_diameter_min": 142.2132389865,
            "estimated_diameter_max": 317.9984696743
        }
    },
    "is_potentially_hazardous_asteroid": false,
    "close_approach_data": [
        {
            "close_approach_date": "1983-01-19",
            "close_approach_date_full": "1983-Jan-19 02:00",
            "epoch_date_close_approach": 411789600000,
            "relative_velocity": {
                "kilometers_per_second": "20.1181743558",
                "kilometers_per_hour": "72425.4276808937",
                "miles_per_hour": "45002.3442164975"
            },
            "miss_distance": {
                "astronomical": "0.4271073507",
                "lunar": "166.1447594223",
                "kilometers": "63894349.926063009",
                "miles": "39702108.0328431642"
            },
            "orbiting_body": "Earth"
        },
        {
            "close_approach_date": "2020-02-28",
            "close_approach_date_full": "2020-Feb-28 10:46",
            "epoch_date_close_approach": 1582886760000,
            "relative_velocity": {
                "kilometers_per_second": "9.138981751",
                "kilometers_per_hour": "32900.3343036615",
                "miles_per_hour": "20442.9882788501"
            },
            "miss_distance": {
                "astronomical": "0.0250555462",
                "lunar": "9.7466074718",
                "kilometers": "3748256.343206594",
                "miles": "2329058.4917912372"
            },
            "orbiting_body": "Earth"
        },
        {
            "close_approach_date": "2023-05-04",
            "close_approach_date_full": "2023-May-04 01:02",
            "epoch_date_close_approach": 1683162120000,
            "relative_velocity": {
                "kilometers_per_second": "18.7984707907",
                "kilometers_per_hour": "67674.4948464152",
                "miles_per_hour": "42050.2993116517"
            },
            "miss_distance": {
                "astronomical": "0.4015144852",
                "lunar": "156.1891347428",
                "kilometers": "60065711.760066524",
                "miles": "37323102.5924410712"
            },
            "orbiting_body": "Earth"
        },
        {
            "close_approach_date": "2097-01-16",
            "close_approach_date_full": "2097-Jan-16 07:23",
            "epoch_date_close_approach": 4009159380000,
            "relative_velocity": {
                "kilometers_per_second": "21.986597091",
                "kilometers_per_hour": "79151.7495275982",
                "miles_per_hour": "49181.8190328568"
            },
            "miss_distance": {
                "astronomical": "0.4897250949",
                "lunar": "190.5030619161",
                "kilometers": "73261831.082587863",
                "miles": "45522790.9148559894"
            },
            "orbiting_body": "Earth"
        }
    ],
    "orbital_data": {
        "orbit_id": "12",
        "orbit_determination_date": "2020-08-22 06:32:55",
        "first_observation_date": "2020-02-24",
        "last_observation_date": "2020-03-24",
        "data_arc_in_days": 29,
        "observations_used": 83,
        "orbit_uncertainty": "6",
        "minimum_orbit_intersection": ".016615",
        "jupiter_tisserand_invariant": "3.528",
        "epoch_osculation": "2459000.5",
        "eccentricity": ".5248200809912362",
        "semi_major_axis": "2.116210724856124",
        "inclination": "10.02523929246384",
        "ascending_node_longitude": "161.4375173857369",
        "orbital_period": "1124.441312551437",
        "perihelion_distance": "1.00558084084261",
        "perihelion_argument": "7.672783512384149",
        "aphelion_distance": "3.226840608869637",
        "perihelion_time": "2458915.628339613511",
        "mean_anomaly": "27.17242545082885",
        "mean_motion": ".3201589944993523",
        "equinox": "J2000",
        "orbit_class": {
            "orbit_class_type": "APO",
            "orbit_class_description": "Near-Earth asteroid orbits which cross the Earth’s orbit similar to that of 1862 Apollo",
            "orbit_class_range": "a (semi-major axis) > 1.0 AU; q (perihelion) < 1.017 AU"
        }
    },
    "is_sentry_object": false
}